BEIDOU-3 M1             
1 43001U 17069A   23327.14874118  .00000006  00000+0  00000+0 0  9996
2 43001  55.9046  94.1624 0007931 290.8156  69.0745  1.86231142 41156
BEIDOU-3 M2             
1 43002U 17069B   23326.54866853  .00000015  00000+0  00000+0 0  9997
2 43002  55.9035  94.2186 0005470 321.3196  38.6193  1.86230919 41137
MOHAMMED VI-A           
1 43005U 17070A   23327.54294748  .00001378  00000+0  20237-3 0  9992
2 43005  97.9408  37.2676 0001223  87.5937 272.5413 14.77070389325717
FENGYUN 3D              
1 43010U 17072A   23327.53883130  .00000205  00000+0  11929-3 0  9994
2 43010  98.8829 276.3231 0001235 164.2991 195.8223 14.19241932312104
HEAD-1                  
1 43011U 17072B   23327.54427032  .00000665  00000+0  29066-3 0  9992
2 43011  98.9240 306.3295 0010253 356.9153   3.1962 14.27294291313665
NOAA 20                 
1 43013U 17073A   23327.55821141  .00000164  00000+0  98350-4 0  9992
2 43013  98.7278 263.5580 0001528  72.4772 287.6571 14.19540713311587
MIRATA                  
1 43015U 17073C   23327.57097693  .00022981  00000+0  13162-2 0  9990
2 43015  97.6130 211.0162 0192754 240.9404 117.2392 14.98187915325306
MAKERSAT 0              
1 43016U 17073D   23327.60623847  .00015485  00000+0  98154-3 0  9997
2 43016  97.6068 207.9190 0212518 254.4948 103.2717 14.92181670325050
RADFXSAT (FOX-1B)       
1 43017U 17073E   23327.55922379  .00012379  00000+0  82934-3 0  9992
2 43017  97.6052 205.6597 0222473 261.8862  95.7066 14.88971058324871
JILIN-1 04              
1 43022U 17074A   23327.52264510  .00009490  00000+0  48402-3 0  9994
2 43022  97.4970  56.1959 0005402 272.5438  87.5176 15.16944496331163
JILIN-1 05              
1 43023U 17074B   23327.54083886  .00009813  00000+0  49847-3 0  9995
2 43023  97.4986  56.6516 0005810 292.2379  67.8238 15.17075524331170
JILIN-1 06              
1 43024U 17074C   23327.53945755  .00006429  00000+0  34297-3 0  9990
2 43024  97.4980  56.0965 0008561 295.6417  64.3931 15.15470129331140
YAOGAN-30 D             
1 43028U 17075A   23327.04096963  .00004177  00000+0  39215-3 0  9992
2 43028  34.9936 185.1456 0001920  22.3937 337.6852 14.93460705326599
YAOGAN-30 E             
1 43029U 17075B   23327.62034899  .00003971  00000+0  37308-3 0  9999
2 43029  34.9929 181.2328 0005415 353.9106   6.1533 14.93434214326793
YAOGAN-30 F             
1 43030U 17075C   23327.06292313  .00004178  00000+0  39256-3 0  9990
2 43030  34.9940 184.4531 0002608 223.5901 136.4598 14.93423522326771
COSMOS 2524             
1 43032U 17076A   23327.59680360  .00000074  00000+0  10686-3 0  9991
2 43032  67.1451 311.5509 0005130 222.7023 137.3664 13.97193169304757
LKW-1                   
1 43034U 17077A   23327.55958179  .00011040  00000+0  46965-3 0  9990
2 43034  97.2372  27.8192 0002021 155.0413 205.0922 15.23172272332098
