[{"OBJECT_NAME":"BEIDOU-3 M1","OBJECT_ID":"2017-069A","EPOCH":"2023-11-23T03:34:11.237952","MEAN_MOTION":1.86231142,"ECCENTRICITY":0.0007931,"INCLINATION":55.9046,"RA_OF_ASC_NODE":94.1624,"ARG_OF_PERICENTER":290.8156,"MEAN_ANOMALY":69.0745,"EPHEMERIS_TYPE":0,"CLASSIFICATION_TYPE":"U","NORAD_CAT_ID":43001,"ELEMENT_SET_NO":999,"REV_AT_EPOCH":4115,"BSTAR":0,"MEAN_MOTION_DOT":6.0e-8,"MEAN_MOTION_DDOT":0},{"OBJECT_NAME":"BEIDOU-3 M2","OBJECT_ID":"2017-069B","EPOCH":"2023-11-22T13:10:04.960992","MEAN_MOTION":1.86230919,"ECCENTRICITY":0.000547,"INCLINATION":55.9035,"RA_OF_ASC_NODE":94.2186,"ARG_OF_PERICENTER":321.3196,"MEAN_ANOMALY":38.6193,"EPHEMERIS_TYPE":0,"CLASSIFICATION_TYPE":"U","NORAD_CAT_ID":43002,"ELEMENT_SET_NO":999,"REV_AT_EPOCH":4113,"BSTAR":0,"MEAN_MOTION_DOT":1.5e-7,"MEAN_MOTION_DDOT":0},{"OBJECT_NAME":"MOHAMMED VI-A","OBJECT_ID":"2017-070A","EPOCH":"2023-11-23T13:01:50.662272","MEAN_MOTION":14.77070389,"ECCENTRICITY":0.0001223,"INCLINATION":97.9408,"RA_OF_ASC_NODE":37.2676,"ARG_OF_PERICENTER":87.5937,"MEAN_ANOMALY":272.5413,"EPHEMERIS_TYPE":0,"CLASSIFICATION_TYPE":"U","NORAD_CAT_ID":43005,"ELEMENT_SET_NO":999,"REV_AT_EPOCH":32571,"BSTAR":0.00020237,"MEAN_MOTION_DOT":1.378e-5,"MEAN_MOTION_DDOT":0},{"OBJECT_NAME":"FENGYUN 3D","OBJECT_ID":"2017-072A","EPOCH":"2023-11-23T12:55:55.024320","MEAN_MOTION":14.19241932,"ECCENTRICITY":0.0001235,"INCLINATION":98.8829,"RA_OF_ASC_NODE":276.3231,"ARG_OF_PERICENTER":164.2991,"MEAN_ANOMALY":195.8223,"EPHEMERIS_TYPE":0,"CLASSIFICATION_TYPE":"U","NORAD_CAT_ID":43010,"ELEMENT_SET_NO":999,"REV_AT_EPOCH":31210,"BSTAR":0.00011929,"MEAN_MOTION_DOT":2.05e-6,"MEAN_MOTION_DDOT":0},{"OBJECT_NAME":"HEAD-1","OBJECT_ID":"2017-072B","EPOCH":"2023-11-23T13:03:44.955648","MEAN_MOTION":14.27294291,"ECCENTRICITY":0.0010253,"INCLINATION":98.924,"RA_OF_ASC_NODE":306.3295,"ARG_OF_PERICENTER":356.9153,"MEAN_ANOMALY":3.1962,"EPHEMERIS_TYPE":0,"CLASSIFICATION_TYPE":"U","NORAD_CAT_ID":43011,"ELEMENT_SET_NO":999,"REV_AT_EPOCH":31366,"BSTAR":0.00029066,"MEAN_MOTION_DOT":6.65e-6,"MEAN_MOTION_DDOT":0},{"OBJECT_NAME":"NOAA 20","OBJECT_ID":"2017-073A","EPOCH":"2023-11-23T13:23:49.465824","MEAN_MOTION":14.19540713,"ECCENTRICITY":0.0001528,"INCLINATION":98.7278,"RA_OF_ASC_NODE":263.558,"ARG_OF_PERICENTER":72.4772,"MEAN_ANOMALY":287.6571,"EPHEMERIS_TYPE":0,"CLASSIFICATION_TYPE":"U","NORAD_CAT_ID":43013,"ELEMENT_SET_NO":999,"REV_AT_EPOCH":31158,"BSTAR":9.835e-5,"MEAN_MOTION_DOT":1.64e-6,"MEAN_MOTION_DDOT":0},{"OBJECT_NAME":"MIRATA","OBJECT_ID":"2017-073C","EPOCH":"2023-11-23T13:42:12.406752","MEAN_MOTION":14.98187915,"ECCENTRICITY":0.0192754,"INCLINATION":97.613,"RA_OF_ASC_NODE":211.0162,"ARG_OF_PERICENTER":240.9404,"MEAN_ANOMALY":117.2392,"EPHEMERIS_TYPE":0,"CLASSIFICATION_TYPE":"U","NORAD_CAT_ID":43015,"ELEMENT_SET_NO":999,"REV_AT_EPOCH":32530,"BSTAR":0.0013162,"MEAN_MOTION_DOT":0.00022981,"MEAN_MOTION_DDOT":0},{"OBJECT_NAME":"MAKERSAT 0","OBJECT_ID":"2017-073D","EPOCH":"2023-11-23T14:32:59.003808","MEAN_MOTION":14.9218167,"ECCENTRICITY":0.0212518,"INCLINATION":97.6068,"RA_OF_ASC_NODE":207.919,"ARG_OF_PERICENTER":254.4948,"MEAN_ANOMALY":103.2717,"EPHEMERIS_TYPE":0,"CLASSIFICATION_TYPE":"U","NORAD_CAT_ID":43016,"ELEMENT_SET_NO":999,"REV_AT_EPOCH":32505,"BSTAR":0.00098154,"MEAN_MOTION_DOT":0.00015485,"MEAN_MOTION_DDOT":0},{"OBJECT_NAME":"RADFXSAT (FOX-1B)","OBJECT_ID":"2017-073E","EPOCH":"2023-11-23T13:25:16.935456","MEAN_MOTION":14.88971058,"ECCENTRICITY":0.0222473,"INCLINATION":97.6052,"RA_OF_ASC_NODE":205.6597,"ARG_OF_PERICENTER":261.8862,"MEAN_ANOMALY":95.7066,"EPHEMERIS_TYPE":0,"CLASSIFICATION_TYPE":"U","NORAD_CAT_ID":43017,"ELEMENT_SET_NO":999,"REV_AT_EPOCH":32487,"BSTAR":0.00082934,"MEAN_MOTION_DOT":0.00012379,"MEAN_MOTION_DDOT":0},{"OBJECT_NAME":"JILIN-1 04","OBJECT_ID":"2017-074A","EPOCH":"2023-11-23T12:32:36.536640","MEAN_MOTION":15.16944496,"ECCENTRICITY":0.0005402,"INCLINATION":97.497,"RA_OF_ASC_NODE":56.1959,"ARG_OF_PERICENTER":272.5438,"MEAN_ANOMALY":87.5176,"EPHEMERIS_TYPE":0,"CLASSIFICATION_TYPE":"U","NORAD_CAT_ID":43022,"ELEMENT_SET_NO":999,"REV_AT_EPOCH":33116,"BSTAR":0.00048402,"MEAN_MOTION_DOT":9.49e-5,"MEAN_MOTION_DDOT":0},{"OBJECT_NAME":"JILIN-1 05","OBJECT_ID":"2017-074B","EPOCH":"2023-11-23T12:58:48.477504","MEAN_MOTION":15.17075524,"ECCENTRICITY":0.000581,"INCLINATION":97.4986,"RA_OF_ASC_NODE":56.6516,"ARG_OF_PERICENTER":292.2379,"MEAN_ANOMALY":67.8238,"EPHEMERIS_TYPE":0,"CLASSIFICATION_TYPE":"U","NORAD_CAT_ID":43023,"ELEMENT_SET_NO":999,"REV_AT_EPOCH":33117,"BSTAR":0.00049847,"MEAN_MOTION_DOT":9.813e-5,"MEAN_MOTION_DDOT":0},{"OBJECT_NAME":"JILIN-1 06","OBJECT_ID":"2017-074C","EPOCH":"2023-11-23T12:56:49.132320","MEAN_MOTION":15.15470129,"ECCENTRICITY":0.0008561,"INCLINATION":97.498,"RA_OF_ASC_NODE":56.0965,"ARG_OF_PERICENTER":295.6417,"MEAN_ANOMALY":64.3931,"EPHEMERIS_TYPE":0,"CLASSIFICATION_TYPE":"U","NORAD_CAT_ID":43024,"ELEMENT_SET_NO":999,"REV_AT_EPOCH":33114,"BSTAR":0.00034297,"MEAN_MOTION_DOT":6.429e-5,"MEAN_MOTION_DDOT":0},{"OBJECT_NAME":"YAOGAN-30 D","OBJECT_ID":"2017-075A","EPOCH":"2023-11-23T00:58:59.776032","MEAN_MOTION":14.93460705,"ECCENTRICITY":0.000192,"INCLINATION":34.9936,"RA_OF_ASC_NODE":185.1456,"ARG_OF_PERICENTER":22.3937,"MEAN_ANOMALY":337.6852,"EPHEMERIS_TYPE":0,"CLASSIFICATION_TYPE":"U","NORAD_CAT_ID":43028,"ELEMENT_SET_NO":999,"REV_AT_EPOCH":32659,"BSTAR":0.00039215,"MEAN_MOTION_DOT":4.177e-5,"MEAN_MOTION_DDOT":0},{"OBJECT_NAME":"YAOGAN-30 E","OBJECT_ID":"2017-075B","EPOCH":"2023-11-23T14:53:18.152736","MEAN_MOTION":14.93434214,"ECCENTRICITY":0.0005415,"INCLINATION":34.9929,"RA_OF_ASC_NODE":181.2328,"ARG_OF_PERICENTER":353.9106,"MEAN_ANOMALY":6.1533,"EPHEMERIS_TYPE":0,"CLASSIFICATION_TYPE":"U","NORAD_CAT_ID":43029,"ELEMENT_SET_NO":999,"REV_AT_EPOCH":32679,"BSTAR":0.00037308,"MEAN_MOTION_DOT":3.971e-5,"MEAN_MOTION_DDOT":0},{"OBJECT_NAME":"YAOGAN-30 F","OBJECT_ID":"2017-075C","EPOCH":"2023-11-23T01:30:36.558432","MEAN_MOTION":14.93423522,"ECCENTRICITY":0.0002608,"INCLINATION":34.994,"RA_OF_ASC_NODE":184.4531,"ARG_OF_PERICENTER":223.5901,"MEAN_ANOMALY":136.4598,"EPHEMERIS_TYPE":0,"CLASSIFICATION_TYPE":"U","NORAD_CAT_ID":43030,"ELEMENT_SET_NO":999,"REV_AT_EPOCH":32677,"BSTAR":0.00039256,"MEAN_MOTION_DOT":4.178e-5,"MEAN_MOTION_DDOT":0},{"OBJECT_NAME":"COSMOS 2524","OBJECT_ID":"2017-076A","EPOCH":"2023-11-23T14:19:23.831040","MEAN_MOTION":13.97193169,"ECCENTRICITY":0.000513,"INCLINATION":67.1451,"RA_OF_ASC_NODE":311.5509,"ARG_OF_PERICENTER":222.7023,"MEAN_ANOMALY":137.3664,"EPHEMERIS_TYPE":0,"CLASSIFICATION_TYPE":"U","NORAD_CAT_ID":43032,"ELEMENT_SET_NO":999,"REV_AT_EPOCH":30475,"BSTAR":0.00010686,"MEAN_MOTION_DOT":7.4e-7,"MEAN_MOTION_DDOT":0},{"OBJECT_NAME":"LKW-1","OBJECT_ID":"2017-077A","EPOCH":"2023-11-23T13:25:47.866656","MEAN_MOTION":15.23172272,"ECCENTRICITY":0.0002021,"INCLINATION":97.2372,"RA_OF_ASC_NODE":27.8192,"ARG_OF_PERICENTER":155.0413,"MEAN_ANOMALY":205.0922,"EPHEMERIS_TYPE":0,"CLASSIFICATION_TYPE":"U","NORAD_CAT_ID":43034,"ELEMENT_SET_NO":999,"REV_AT_EPOCH":33209,"BSTAR":0.00046965,"MEAN_MOTION_DOT":0.0001104,"MEAN_MOTION_DDOT":0}]
